CSS (TIANHE)            
1 48274U 21035A   24191.33982974  .00032835  00000+0  34335-3 0  9999
2 48274  41.4687 307.8940 0004165   0.2502 359.8340 15.63748828182569
